STARLINK-36621          
1 67561U 26016A   26035.16668981 -.01689843  00000+0 -74724-2 0  9997
2 67561  97.2817  93.8568 0001760  65.6967  46.7394 15.87235009  2660
STARLINK-36398          
1 67562U 26016B   26035.16668981 -.01670637  00000+0 -72882-2 0  9992
2 67562  97.2816  93.8591 0001703  64.1474  53.4472 15.87474371  2647
STARLINK-36403          
1 67563U 26016C   26035.16668981 -.01680716  00000+0 -72591-2 0  9999
2 67563  97.2818  93.8613 0001601  70.1067  51.9553 15.87695447  2751
STARLINK-36593          
1 67564U 26016D   26035.16668981 -.01666467  00000+0 -71020-2 0  9993
2 67564  97.2817  93.8633 0001637  69.3219  57.9508 15.87937713  2606
STARLINK-35725          
1 67565U 26016E   26035.16668981 -.01660050  00000+0 -70067-2 0  9996
2 67565  97.2812  93.8644 0001611  62.3405  68.8265 15.88120213  2652
STARLINK-36394          
1 67566U 26016F   26035.16668981 -.01660824  00000+0 -67474-2 0  9994
2 67566  97.2803  93.8710 0001656  69.1837  78.5575 15.88881739  2750
STARLINK-36352          
1 67567U 26016G   26035.16668981 -.01656278  00000+0 -68095-2 0  9993
2 67567  97.2804  93.8688 0001596  69.7681  73.0979 15.88638216  2660
STARLINK-36435          
1 67568U 26016H   26035.16668981 -.01650792  00000+0 -66336-2 0  9995
2 67568  97.2802  93.8729 0001614  75.4777  76.5919 15.89081923  2666
STARLINK-36575          
1 67569U 26016J   26035.16668981 -.01635930  00000+0 -64882-2 0  9997
2 67569  97.2800  93.8756 0001500  66.1945  90.7405 15.89317348  2664
STARLINK-36562          
1 67570U 26016K   26035.16668981 -.01859647  92753-3 -64708-2 0  9999
2 67570  97.2795  93.8768 0001723  73.0183  87.6053 15.89491034  2669
STARLINK-36578          
1 67571U 26016L   26035.16668981 -.01854406  92447-3 -63884-2 0  9992
2 67571  97.2795  93.8782 0001607  76.2538  88.5224 15.89690864  2646
STARLINK-36350          
1 67572U 26016M   26035.16668981 -.01864366  93615-3 -63404-2 0  9995
2 67572  97.2796  93.8804 0001695  67.2847 102.6028 15.89949295  2558
