CCSDS_OMM_VERS = 2.0
CREATION_DATE  = 
ORIGINATOR     = 

OBJECT_NAME    = STARLINK-36621
OBJECT_ID      = 2026-016A
CENTER_NAME    = EARTH
REF_FRAME      = TEME
TIME_SYSTEM    = UTC
MEAN_ELEMENT_THEORY = SGP/SGP4

EPOCH          = 2026-02-04T04:00:01.999584
MEAN_MOTION    = 15.87235009
ECCENTRICITY   = .000176
INCLINATION    = 97.2817
RA_OF_ASC_NODE = 93.8568
ARG_OF_PERICENTER = 65.6967
MEAN_ANOMALY   = 46.7394

EPHEMERIS_TYPE = 0
CLASSIFICATION_TYPE = U
NORAD_CAT_ID   = 67561
ELEMENT_SET_NO = 999
REV_AT_EPOCH   = 266
BSTAR          = -.74724E-2
MEAN_MOTION_DOT = -.1689843E-1
MEAN_MOTION_DDOT = 0

CCSDS_OMM_VERS = 2.0
CREATION_DATE  = 
ORIGINATOR     = 

OBJECT_NAME    = STARLINK-36398
OBJECT_ID      = 2026-016B
CENTER_NAME    = EARTH
REF_FRAME      = TEME
TIME_SYSTEM    = UTC
MEAN_ELEMENT_THEORY = SGP/SGP4

EPOCH          = 2026-02-04T04:00:01.999584
MEAN_MOTION    = 15.87474371
ECCENTRICITY   = .0001703
INCLINATION    = 97.2816
RA_OF_ASC_NODE = 93.8591
ARG_OF_PERICENTER = 64.1474
MEAN_ANOMALY   = 53.4472

EPHEMERIS_TYPE = 0
CLASSIFICATION_TYPE = U
NORAD_CAT_ID   = 67562
ELEMENT_SET_NO = 999
REV_AT_EPOCH   = 264
BSTAR          = -.72882E-2
MEAN_MOTION_DOT = -.1670637E-1
MEAN_MOTION_DDOT = 0

CCSDS_OMM_VERS = 2.0
CREATION_DATE  = 
ORIGINATOR     = 

OBJECT_NAME    = STARLINK-36403
OBJECT_ID      = 2026-016C
CENTER_NAME    = EARTH
REF_FRAME      = TEME
TIME_SYSTEM    = UTC
MEAN_ELEMENT_THEORY = SGP/SGP4

EPOCH          = 2026-02-04T04:00:01.999584
MEAN_MOTION    = 15.87695447
ECCENTRICITY   = .0001601
INCLINATION    = 97.2818
RA_OF_ASC_NODE = 93.8613
ARG_OF_PERICENTER = 70.1067
MEAN_ANOMALY   = 51.9553

EPHEMERIS_TYPE = 0
CLASSIFICATION_TYPE = U
NORAD_CAT_ID   = 67563
ELEMENT_SET_NO = 999
REV_AT_EPOCH   = 275
BSTAR          = -.72591E-2
MEAN_MOTION_DOT = -.1680716E-1
MEAN_MOTION_DDOT = 0

CCSDS_OMM_VERS = 2.0
CREATION_DATE  = 
ORIGINATOR     = 

OBJECT_NAME    = STARLINK-36593
OBJECT_ID      = 2026-016D
CENTER_NAME    = EARTH
REF_FRAME      = TEME
TIME_SYSTEM    = UTC
MEAN_ELEMENT_THEORY = SGP/SGP4

EPOCH          = 2026-02-04T04:00:01.999584
MEAN_MOTION    = 15.87937713
ECCENTRICITY   = .0001637
INCLINATION    = 97.2817
RA_OF_ASC_NODE = 93.8633
ARG_OF_PERICENTER = 69.3219
MEAN_ANOMALY   = 57.9508

EPHEMERIS_TYPE = 0
CLASSIFICATION_TYPE = U
NORAD_CAT_ID   = 67564
ELEMENT_SET_NO = 999
REV_AT_EPOCH   = 260
BSTAR          = -.7102E-2
MEAN_MOTION_DOT = -.1666467E-1
MEAN_MOTION_DDOT = 0

CCSDS_OMM_VERS = 2.0
CREATION_DATE  = 
ORIGINATOR     = 

OBJECT_NAME    = STARLINK-35725
OBJECT_ID      = 2026-016E
CENTER_NAME    = EARTH
REF_FRAME      = TEME
TIME_SYSTEM    = UTC
MEAN_ELEMENT_THEORY = SGP/SGP4

EPOCH          = 2026-02-04T04:00:01.999584
MEAN_MOTION    = 15.88120213
ECCENTRICITY   = .0001611
INCLINATION    = 97.2812
RA_OF_ASC_NODE = 93.8644
ARG_OF_PERICENTER = 62.3405
MEAN_ANOMALY   = 68.8265

EPHEMERIS_TYPE = 0
CLASSIFICATION_TYPE = U
NORAD_CAT_ID   = 67565
ELEMENT_SET_NO = 999
REV_AT_EPOCH   = 265
BSTAR          = -.70067E-2
MEAN_MOTION_DOT = -.166005E-1
MEAN_MOTION_DDOT = 0

CCSDS_OMM_VERS = 2.0
CREATION_DATE  = 
ORIGINATOR     = 

OBJECT_NAME    = STARLINK-36394
OBJECT_ID      = 2026-016F
CENTER_NAME    = EARTH
REF_FRAME      = TEME
TIME_SYSTEM    = UTC
MEAN_ELEMENT_THEORY = SGP/SGP4

EPOCH          = 2026-02-04T04:00:01.999584
MEAN_MOTION    = 15.88881739
ECCENTRICITY   = .0001656
INCLINATION    = 97.2803
RA_OF_ASC_NODE = 93.8710
ARG_OF_PERICENTER = 69.1837
MEAN_ANOMALY   = 78.5575

EPHEMERIS_TYPE = 0
CLASSIFICATION_TYPE = U
NORAD_CAT_ID   = 67566
ELEMENT_SET_NO = 999
REV_AT_EPOCH   = 275
BSTAR          = -.67474E-2
MEAN_MOTION_DOT = -.1660824E-1
MEAN_MOTION_DDOT = 0

CCSDS_OMM_VERS = 2.0
CREATION_DATE  = 
ORIGINATOR     = 

OBJECT_NAME    = STARLINK-36352
OBJECT_ID      = 2026-016G
CENTER_NAME    = EARTH
REF_FRAME      = TEME
TIME_SYSTEM    = UTC
MEAN_ELEMENT_THEORY = SGP/SGP4

EPOCH          = 2026-02-04T04:00:01.999584
MEAN_MOTION    = 15.88638216
ECCENTRICITY   = .0001596
INCLINATION    = 97.2804
RA_OF_ASC_NODE = 93.8688
ARG_OF_PERICENTER = 69.7681
MEAN_ANOMALY   = 73.0979

EPHEMERIS_TYPE = 0
CLASSIFICATION_TYPE = U
NORAD_CAT_ID   = 67567
ELEMENT_SET_NO = 999
REV_AT_EPOCH   = 266
BSTAR          = -.68095E-2
MEAN_MOTION_DOT = -.1656278E-1
MEAN_MOTION_DDOT = 0

CCSDS_OMM_VERS = 2.0
CREATION_DATE  = 
ORIGINATOR     = 

OBJECT_NAME    = STARLINK-36435
OBJECT_ID      = 2026-016H
CENTER_NAME    = EARTH
REF_FRAME      = TEME
TIME_SYSTEM    = UTC
MEAN_ELEMENT_THEORY = SGP/SGP4

EPOCH          = 2026-02-04T04:00:01.999584
MEAN_MOTION    = 15.89081923
ECCENTRICITY   = .0001614
INCLINATION    = 97.2802
RA_OF_ASC_NODE = 93.8729
ARG_OF_PERICENTER = 75.4777
MEAN_ANOMALY   = 76.5919

EPHEMERIS_TYPE = 0
CLASSIFICATION_TYPE = U
NORAD_CAT_ID   = 67568
ELEMENT_SET_NO = 999
REV_AT_EPOCH   = 266
BSTAR          = -.66336E-2
MEAN_MOTION_DOT = -.1650792E-1
MEAN_MOTION_DDOT = 0

CCSDS_OMM_VERS = 2.0
CREATION_DATE  = 
ORIGINATOR     = 

OBJECT_NAME    = STARLINK-36575
OBJECT_ID      = 2026-016J
CENTER_NAME    = EARTH
REF_FRAME      = TEME
TIME_SYSTEM    = UTC
MEAN_ELEMENT_THEORY = SGP/SGP4

EPOCH          = 2026-02-04T04:00:01.999584
MEAN_MOTION    = 15.89317348
ECCENTRICITY   = .00015
INCLINATION    = 97.2800
RA_OF_ASC_NODE = 93.8756
ARG_OF_PERICENTER = 66.1945
MEAN_ANOMALY   = 90.7405

EPHEMERIS_TYPE = 0
CLASSIFICATION_TYPE = U
NORAD_CAT_ID   = 67569
ELEMENT_SET_NO = 999
REV_AT_EPOCH   = 266
BSTAR          = -.64882E-2
MEAN_MOTION_DOT = -.163593E-1
MEAN_MOTION_DDOT = 0

CCSDS_OMM_VERS = 2.0
CREATION_DATE  = 
ORIGINATOR     = 

OBJECT_NAME    = STARLINK-36562
OBJECT_ID      = 2026-016K
CENTER_NAME    = EARTH
REF_FRAME      = TEME
TIME_SYSTEM    = UTC
MEAN_ELEMENT_THEORY = SGP/SGP4

EPOCH          = 2026-02-04T04:00:01.999584
MEAN_MOTION    = 15.89491034
ECCENTRICITY   = .0001723
INCLINATION    = 97.2795
RA_OF_ASC_NODE = 93.8768
ARG_OF_PERICENTER = 73.0183
MEAN_ANOMALY   = 87.6053

EPHEMERIS_TYPE = 0
CLASSIFICATION_TYPE = U
NORAD_CAT_ID   = 67570
ELEMENT_SET_NO = 999
REV_AT_EPOCH   = 266
BSTAR          = -.64708E-2
MEAN_MOTION_DOT = -.1859647E-1
MEAN_MOTION_DDOT = .92753E-3

CCSDS_OMM_VERS = 2.0
CREATION_DATE  = 
ORIGINATOR     = 

OBJECT_NAME    = STARLINK-36578
OBJECT_ID      = 2026-016L
CENTER_NAME    = EARTH
REF_FRAME      = TEME
TIME_SYSTEM    = UTC
MEAN_ELEMENT_THEORY = SGP/SGP4

EPOCH          = 2026-02-04T04:00:01.999584
MEAN_MOTION    = 15.89690864
ECCENTRICITY   = .0001607
INCLINATION    = 97.2795
RA_OF_ASC_NODE = 93.8782
ARG_OF_PERICENTER = 76.2538
MEAN_ANOMALY   = 88.5224

EPHEMERIS_TYPE = 0
CLASSIFICATION_TYPE = U
NORAD_CAT_ID   = 67571
ELEMENT_SET_NO = 999
REV_AT_EPOCH   = 264
BSTAR          = -.63884E-2
MEAN_MOTION_DOT = -.1854406E-1
MEAN_MOTION_DDOT = .92447E-3

CCSDS_OMM_VERS = 2.0
CREATION_DATE  = 
ORIGINATOR     = 

OBJECT_NAME    = STARLINK-36350
OBJECT_ID      = 2026-016M
CENTER_NAME    = EARTH
REF_FRAME      = TEME
TIME_SYSTEM    = UTC
MEAN_ELEMENT_THEORY = SGP/SGP4

EPOCH          = 2026-02-04T04:00:01.999584
MEAN_MOTION    = 15.89949295
ECCENTRICITY   = .0001695
INCLINATION    = 97.2796
RA_OF_ASC_NODE = 93.8804
ARG_OF_PERICENTER = 67.2847
MEAN_ANOMALY   = 102.6028

EPHEMERIS_TYPE = 0
CLASSIFICATION_TYPE = U
NORAD_CAT_ID   = 67572
ELEMENT_SET_NO = 999
REV_AT_EPOCH   = 255
BSTAR          = -.63404E-2
MEAN_MOTION_DOT = -.1864366E-1
MEAN_MOTION_DDOT = .93615E-3

